{"type": "FeatureCollection", "features": [ {"type": "Feature", "properties": {"norad_id": 32316, "name": "FENGYUN 1C DEB", "group": "fengyun-1c-debris", "lat": -28.790081241765797, "lon": 17.9324086060624, "alt_km": 706.6318098169504, "timestamp": "2025-12-12T05:47:29.057261+00:00", "meta": {"OBJECT_NAME": "FENGYUN 1C DEB", "OBJECT_ID": "1999-025CXH", "EPOCH": "2025-12-10T07:40:43.362912", "MEAN_MOTION": 14.51806348, "ECCENTRICITY": 0.0026501, "INCLINATION": 99.5292, "RA_OF_ASC_NODE": 10.4593, "ARG_OF_PERICENTER": 336.7547, "MEAN_ANOMALY": 37.6624, "EPHEMERIS_TYPE": 0, "CLASSIFICATION_TYPE": "U", "NORAD_CAT_ID": 32316, "ELEMENT_SET_NO": 999, "REV_AT_EPOCH": 95742, "BSTAR": 0.0025556, "MEAN_MOTION_DOT": 0.00010287, "MEAN_MOTION_DDOT": 0}, "tle": {"line1": "1 32316U 99025CXH 25344.31994633  .00010287  00000+0  25556-2 0  9998", "line2": "2 32316  99.5292  10.4593 0026501 336.7547  37.6624 14.51806348957429"}}, "geometry": {"type": "Point", "coordinates": [17.9324086060624, -28.790081241765797]}}, {"type": "Feature", "properties": {"norad_id": 32320, "name": "FENGYUN 1C DEB", "group": "fengyun-1c-debris", "lat": -79.61387131545368, "lon": -68.68737244986625, "alt_km": 808.682651283295, "timestamp": "2025-12-12T05:47:29.057273+00:00", "meta": {"OBJECT_NAME": "FENGYUN 1C DEB", "OBJECT_ID": "1999-025CXM", "EPOCH": "2025-12-10T20:46:03.089856", "MEAN_MOTION": 14.36126259, "ECCENTRICITY": 0.0056153, "INCLINATION": 100.3739, "RA_OF_ASC_NODE": 201.5727, "ARG_OF_PERICENTER": 53.0201, "MEAN_ANOMALY": 307.61, "EPHEMERIS_TYPE": 0, "CLASSIFICATION_TYPE": "U", "NORAD_CAT_ID": 32320, "ELEMENT_SET_NO": 999, "REV_AT_EPOCH": 62146, "BSTAR": 0.0011581, "MEAN_MOTION_DOT": 3.377e-05, "MEAN_MOTION_DDOT": 0}, "tle": {"line1": "1 32320U 99025CXM 25344.86531354  .00003377  00000+0  11581-2 0  9995", "line2": "2 32320 100.3739 201.5727 0056153  53.0201 307.6100 14.36126259621465"}}, "geometry": {"type": "Point", "coordinates": [-68.68737244986625, -79.61387131545368]}}, {"type": "Feature", "properties": {"norad_id": 32322, "name": "FENGYUN 1C DEB", "group": "fengyun-1c-debris", "lat": -7.467182449728224, "lon": 47.33099658357236, "alt_km": 1113.749749276627, "timestamp": "2025-12-12T05:47:29.057284+00:00", "meta": {"OBJECT_NAME": "FENGYUN 1C DEB", "OBJECT_ID": "1999-025CXP", "EPOCH": "2025-12-10T11:30:19.459296", "MEAN_MOTION": 13.34129815, "ECCENTRICITY": 0.04190414, "INCLINATION": 98.3701, "RA_OF_ASC_NODE": 226.9905, "ARG_OF_PERICENTER": 103.3403, "MEAN_ANOMALY": 261.4794, "EPHEMERIS_TYPE": 0, "CLASSIFICATION_TYPE": "U", "NORAD_CAT_ID": 32322, "ELEMENT_SET_NO": 999, "REV_AT_EPOCH": 60349, "BSTAR": 0.0015395433, "MEAN_MOTION_DOT": 1.229e-05, "MEAN_MOTION_DDOT": 0}, "tle": {"line1": "1 32322U 99025CXP 25344.47939189  .00001229  00000+0  15395-2 0  9993", "line2": "2 32322  98.3701 226.9905 0419041 103.3403 261.4794 13.34129815603490"}}, "geometry": {"type": "Point", "coordinates": [47.33099658357236, -7.467182449728224]}}, {"type": "Feature", "properties": {"norad_id": 32323, "name": "FENGYUN 1C DEB", "group": "fengyun-1c-debris", "lat": -81.2316382414661, "lon": -152.6441153392485, "alt_km": 856.4047774318487, "timestamp": "2025-12-12T05:47:29.057294+00:00", "meta": {"OBJECT_NAME": "FENGYUN 1C DEB", "OBJECT_ID": "1999-025CXQ", "EPOCH": "2025-12-11T19:53:55.962816", "MEAN_MOTION": 13.9652774, "ECCENTRICITY": 0.01553738, "INCLINATION": 98.5708, "RA_OF_ASC_NODE": 129.0851, "ARG_OF_PERICENTER": 212.3019, "MEAN_ANOMALY": 146.8558, "EPHEMERIS_TYPE": 0, "CLASSIFICATION_TYPE": "U", "NORAD_CAT_ID": 32323, "ELEMENT_SET_NO": 999, "REV_AT_EPOCH": 60257, "BSTAR": 0.0054383938, "MEAN_MOTION_DOT": 8.293e-05, "MEAN_MOTION_DDOT": 0}, "tle": {"line1": "1 32323U 99025CXQ 25345.82911994  .00008293  00000+0  54384-2 0  9997", "line2": "2 32323  98.5708 129.0851 0155373 212.3019 146.8558 13.96527740602571"}}, "geometry": {"type": "Point", "coordinates": [-152.6441153392485, -81.2316382414661]}}, {"type": "Feature", "properties": {"norad_id": 32324, "name": "FENGYUN 1C DEB", "group": "fengyun-1c-debris", "lat": 66.17188725806459, "lon": 65.60087481203144, "alt_km": 829.0356134005297, "timestamp": "2025-12-12T05:47:29.057305+00:00", "meta": {"OBJECT_NAME": "FENGYUN 1C DEB", "OBJECT_ID": "1999-025CXR", "EPOCH": "2025-12-11T05:36:55.669824", "MEAN_MOTION": 14.09142373, "ECCENTRICITY": 0.00500432, "INCLINATION": 99.5336, "RA_OF_ASC_NODE": 86.9016, "ARG_OF_PERICENTER": 28.2624, "MEAN_ANOMALY": 332.1243, "EPHEMERIS_TYPE": 0, "CLASSIFICATION_TYPE": "U", "NORAD_CAT_ID": 32324, "ELEMENT_SET_NO": 999, "REV_AT_EPOCH": 63977, "BSTAR": 0.00067335972, "MEAN_MOTION_DOT": 1.134e-05, "MEAN_MOTION_DDOT": 0}, "tle": {"line1": "1 32324U 99025CXR 25345.23397766  .00001134  00000+0  67336-3 0  9997", "line2": "2 32324  99.5336  86.9016 0050043  28.2624 332.1243 14.09142373639771"}}, "geometry": {"type": "Point", "coordinates": [65.60087481203144, 66.17188725806459]}}, {"type": "Feature", "properties": {"norad_id": 32326, "name": "FENGYUN 1C DEB", "group": "fengyun-1c-debris", "lat": 23.336717562727856, "lon": -88.02443125621353, "alt_km": 1121.4849393382838, "timestamp": "2025-12-12T05:47:29.057315+00:00", "meta": {"OBJECT_NAME": "FENGYUN 1C DEB", "OBJECT_ID": "1999-025CXT", "EPOCH": "2025-11-30T02:32:37.979232", "MEAN_MOTION": 13.69261307, "ECCENTRICITY": 0.03856265, "INCLINATION": 98.486, "RA_OF_ASC_NODE": 264.9459, "ARG_OF_PERICENTER": 173.0082, "MEAN_ANOMALY": 187.6669, "EPHEMERIS_TYPE": 0, "CLASSIFICATION_TYPE": "U", "NORAD_CAT_ID": 32326, "ELEMENT_SET_NO": 999, "REV_AT_EPOCH": 63009, "BSTAR": 0.00044957354, "MEAN_MOTION_DOT": 6.22e-06, "MEAN_MOTION_DDOT": 0}, "tle": {"line1": "1 32326U 99025CXT 25334.10599513  .00000622  00000+0  44957-3 0  9992", "line2": "2 32326  98.4860 264.9459 0385626 173.0082 187.6669 13.69261307630092"}}, "geometry": {"type": "Point", "coordinates": [-88.02443125621353, 23.336717562727856]}}, {"type": "Feature", "properties": {"norad_id": 32332, "name": "FENGYUN 1C DEB", "group": "fengyun-1c-debris", "lat": 70.86044310950945, "lon": 12.679230700015955, "alt_km": 992.7063444613705, "timestamp": "2025-12-12T05:47:29.057325+00:00", "meta": {"OBJECT_NAME": "FENGYUN 1C DEB", "OBJECT_ID": "1999-025CXZ", "EPOCH": "2025-12-11T22:34:14.489472", "MEAN_MOTION": 13.97127144, "ECCENTRICITY": 0.02849762, "INCLINATION": 99.1325, "RA_OF_ASC_NODE": 39.9925, "ARG_OF_PERICENTER": 315.0226, "MEAN_ANOMALY": 42.8168, "EPHEMERIS_TYPE": 0, "CLASSIFICATION_TYPE": "U", "NORAD_CAT_ID": 32332, "ELEMENT_SET_NO": 999, "REV_AT_EPOCH": 93025, "BSTAR": 0.0022707216, "MEAN_MOTION_DOT": 4.432e-05, "MEAN_MOTION_DDOT": 0}, "tle": {"line1": "1 32332U 99025CXZ 25345.94044548  .00004432  00000+0  22707-2 0  9997", "line2": "2 32332  99.1325  39.9925 0284976 315.0226  42.8168 13.97127144930253"}}, "geometry": {"type": "Point", "coordinates": [12.679230700015955, 70.86044310950945]}}, {"type": "Feature", "properties": {"norad_id": 32334, "name": "FENGYUN 1C DEB", "group": "fengyun-1c-debris", "lat": -71.89189830266957, "lon": -169.2569047733049, "alt_km": 852.8032877085561, "timestamp": "2025-12-12T05:47:29.057337+00:00", "meta": {"OBJECT_NAME": "FENGYUN 1C DEB", "OBJECT_ID": "1999-025CYB", "EPOCH": "2025-12-10T14:53:08.742912", "MEAN_MOTION": 14.01639218, "ECCENTRICITY": 0.006636, "INCLINATION": 99.2529, "RA_OF_ASC_NODE": 39.0008, "ARG_OF_PERICENTER": 287.0109, "MEAN_ANOMALY": 72.3791, "EPHEMERIS_TYPE": 0, "CLASSIFICATION_TYPE": "U", "NORAD_CAT_ID": 32334, "ELEMENT_SET_NO": 999, "REV_AT_EPOCH": 93910, "BSTAR": 0.0004821, "MEAN_MOTION_DOT": 6.98e-06, "MEAN_MOTION_DDOT": 0}, "tle": {"line1": "1 32334U 99025CYB 25344.62024008  .00000698  00000+0  48210-3 0  9990", "line2": "2 32334  99.2529  39.0008 0066360 287.0109  72.3791 14.01639218939107"}}, "geometry": {"type": "Point", "coordinates": [-169.2569047733049, -71.89189830266957]}}, {"type": "Feature", "properties": {"norad_id": 32340, "name": "FENGYUN 1C DEB", "group": "fengyun-1c-debris", "lat": 34.89925154589278, "lon": -14.346833092381607, "alt_km": 648.1446430915494, "timestamp": "2025-12-12T05:47:29.057348+00:00", "meta": {"OBJECT_NAME": "FENGYUN 1C DEB", "OBJECT_ID": "1999-025CYH", "EPOCH": "2025-12-10T17:48:09.538848", "MEAN_MOTION": 14.74494196, "ECCENTRICITY": 0.00340453, "INCLINATION": 98.9824, "RA_OF_ASC_NODE": 350.327, "ARG_OF_PERICENTER": 300.429, "MEAN_ANOMALY": 59.3553, "EPHEMERIS_TYPE": 0, "CLASSIFICATION_TYPE": "U", "NORAD_CAT_ID": 32340, "ELEMENT_SET_NO": 999, "REV_AT_EPOCH": 97167, "BSTAR": 0.0040015959, "MEAN_MOTION_DOT": 0.0002689, "MEAN_MOTION_DDOT": 0}, "tle": {"line1": "1 32340U 99025CYH 25344.74177707  .00026890  00000+0  40016-2 0  9992", "line2": "2 32340  98.9824 350.3270 0034045 300.4290  59.3553 14.74494196971677"}}, "geometry": {"type": "Point", "coordinates": [-14.346833092381607, 34.89925154589278]}}, {"type": "Feature", "properties": {"norad_id": 32342, "name": "FENGYUN 1C DEB", "group": "fengyun-1c-debris", "lat": -49.17459544942959, "lon": 164.69044417497108, "alt_km": 857.5620034236699, "timestamp": "2025-12-12T05:47:29.057358+00:00", "meta": {"OBJECT_NAME": "FENGYUN 1C DEB", "OBJECT_ID": "1999-025CYK", "EPOCH": "2025-12-11T23:52:12.709056", "MEAN_MOTION": 14.13398284, "ECCENTRICITY": 0.00075423, "INCLINATION": 98.6704, "RA_OF_ASC_NODE": 354.6242, "ARG_OF_PERICENTER": 353.6058, "MEAN_ANOMALY": 61.6836, "EPHEMERIS_TYPE": 0, "CLASSIFICATION_TYPE": "U", "NORAD_CAT_ID": 32342, "ELEMENT_SET_NO": 999, "REV_AT_EPOCH": 93707, "BSTAR": 0.00015440815, "MEAN_MOTION_DOT": 2.47e-06, "MEAN_MOTION_DDOT": 0}, "tle": {"line1": "1 32342U 99025CYK 25345.99459154  .00000247  00000+0  15441-3 0  9994", "line2": "2 32342  98.6704 354.6242 0007542 353.6058  61.6836 14.13398284937073"}}, "geometry": {"type": "Point", "coordinates": [164.69044417497108, -49.17459544942959]}}]}